{
    "links": {
        "self": "http://www.neowsapp.com/rest/v1/neo/3552692?api_key=iIulBulltgU6a56xZRHN4H3l9WmuAYTsLGpBGhQ2"
    },
    "id": "3552692",
    "neo_reference_id": "3552692",
    "name": "(2010 XQ)",
    "designation": "2010 XQ",
    "nasa_jpl_url": "http://ssd.jpl.nasa.gov/sbdb.cgi?sstr=3552692",
    "absolute_magnitude_h": 25.208,
    "estimated_diameter": {
        "kilometers": {
            "estimated_diameter_min": 0.0241521044,
            "estimated_diameter_max": 0.0540057472
        },
        "meters": {
            "estimated_diameter_min": 24.1521043613,
            "estimated_diameter_max": 54.0057471516
        },
        "miles": {
            "estimated_diameter_min": 0.0150074172,
            "estimated_diameter_max": 0.0335576051
        },
        "feet": {
            "estimated_diameter_min": 79.2391900728,
            "estimated_diameter_max": 177.1842154847
        }
    },
    "is_potentially_hazardous_asteroid": false,
    "close_approach_data": [
        {
            "close_approach_date": "2010-12-06",
            "close_approach_date_full": "2010-Dec-06 18:46",
            "epoch_date_close_approach": 1291661160000,
            "relative_velocity": {
                "kilometers_per_second": "8.9239071766",
                "kilometers_per_hour": "32126.0658355959",
                "miles_per_hour": "19961.8879632346"
            },
            "miss_distance": {
                "astronomical": "0.0319922443",
                "lunar": "12.4449830327",
                "kilometers": "4785971.603799641",
                "miles": "2973864.8546554058"
            },
            "orbiting_body": "Earth"
        }
    ],
    "orbital_data": {
        "orbit_id": "8",
        "orbit_determination_date": "2017-04-06 08:55:26",
        "first_observation_date": "2010-12-02",
        "last_observation_date": "2010-12-02",
        "data_arc_in_days": null,
        "observations_used": 15,
        "orbit_uncertainty": "9",
        "minimum_orbit_intersection": ".0290193",
        "jupiter_tisserand_invariant": "3.036",
        "epoch_osculation": "2455532.5",
        "eccentricity": ".6275972463268219",
        "semi_major_axis": "2.708234242105329",
        "inclination": "7.191266545285373",
        "ascending_node_longitude": "73.44708251523583",
        "orbital_period": "1627.900153752199",
        "perihelion_distance": "1.008553889352017",
        "perihelion_argument": "12.3592706038694",
        "aphelion_distance": "4.40791459485864",
        "perihelion_time": "2455546.048558670035",
        "mean_anomaly": "357.0038204677539",
        "mean_motion": ".2211437840153922",
        "equinox": "J2000",
        "orbit_class": {
            "orbit_class_type": "APO",
            "orbit_class_description": "Near-Earth asteroid orbits which cross the Earth’s orbit similar to that of 1862 Apollo",
            "orbit_class_range": "a (semi-major axis) > 1.0 AU; q (perihelion) < 1.017 AU"
        }
    },
    "is_sentry_object": false
}